STARLINK-31284          
1 59246U 24049R   26068.20580556 -.00002109  00000+0 -67171-4 0  9997
2 59246  43.0033 146.1340 0000917 212.5513 147.5282 15.27573933112329
FLOCK 4G-8              
1 62613U 25009E   26068.72381419  .00013559  00000+0  50438-3 0  9996
2 62613  97.4045 151.2834 0003050 315.2538  44.8455 15.27623414 63721
